NAVSTAR 58 (USA 190)    
1 29486U 06042A   25334.57626661  .00000129  00000+0  00000+0 0  9997
2 29486  54.6926 159.2234 0107364  51.6693 320.3415  2.00554533140415
NAVSTAR 59 (USA 192)    
1 29601U 06052A   25333.98383759  .00000038  00000+0  00000+0 0  9998
2 29601  54.9734 221.9046 0087429  87.3088 273.7660  2.00572573139410
NAVSTAR 60 (USA 196)    
1 32260U 07047A   25333.79058106  .00000011  00000+0  00000+0 0  9993
2 32260  53.9462  88.2935 0164410  85.0909 276.7728  2.00564988132812
COSMOS 2433 [GLONASS-M] 
1 32275U 07052A   25333.95017507 -.00000018  00000+0  00000+0 0  9991
2 32275  65.6901 322.6356 0005623 251.6280 108.3293  2.13103951140810
COSMOS 2432 [GLONASS-M] 
1 32276U 07052B   25334.09543551 -.00000018  00000+0  00000+0 0  9991
2 32276  65.7059 322.7547 0011217 310.9925 104.9080  2.13103086140848
NAVSTAR 61 (USA 199)    
1 32384U 07062A   25334.07405993 -.00000039  00000+0  00000+0 0  9990
2 32384  55.1935 282.1541 0032199 162.9568 172.3090  2.00576520131514
COSMOS 2434 [GLONASS-M] 
1 32393U 07065A   25334.79629904  .00000098  00000+0  00000+0 0  9996
2 32393  64.3147 198.6065 0004324  70.6228 109.1321  2.13101185139541
COSMOS 2436 [GLONASS-M] 
1 32395U 07065C   25334.08590824  .00000091  00000+0  00000+0 0  9991
2 32395  64.3233 198.7006 0017704   8.5569 119.3435  2.13099987139487
